[{"OBJECT_NAME":"SHIYAN-1 (SY-1)","OBJECT_ID":"2004-012A","EPOCH":"2026-03-09T17:40:34.066560","MEAN_MOTION":15.31043463,"ECCENTRICITY":0.00058726,"INCLINATION":97.8764,"RA_OF_ASC_NODE":140.5238,"ARG_OF_PERICENTER":23.6952,"MEAN_ANOMALY":336.4557,"EPHEMERIS_TYPE":0,"CLASSIFICATION_TYPE":"U","NORAD_CAT_ID":28220,"ELEMENT_SET_NO":999,"REV_AT_EPOCH":19586,"BSTAR":0.00054854449,"MEAN_MOTION_DOT":0.00016393,"MEAN_MOTION_DDOT":0},{"OBJECT_NAME":"STARLINK-36183","OBJECT_ID":"2025-303L","EPOCH":"2026-03-09T00:59:36.332736","MEAN_MOTION":15.27587617,"ECCENTRICITY":0.00017714,"INCLINATION":43.0008,"RA_OF_ASC_NODE":314.5763,"ARG_OF_PERICENTER":267.5782,"MEAN_ANOMALY":92.4867,"EPHEMERIS_TYPE":0,"CLASSIFICATION_TYPE":"U","NORAD_CAT_ID":67173,"ELEMENT_SET_NO":999,"REV_AT_EPOCH":1263,"BSTAR":0.0016612908,"MEAN_MOTION_DOT":0.00045748,"MEAN_MOTION_DDOT":0}]
